{
  "type": "FeatureCollection",
  "features": [
    {
      "type": "Feature",
      "properties": {
        "norad_id": 44334,
        "name": "EUTELSAT 7C",
        "group": "eutelsat",
        "lat": -0.031016156290088186,
        "lon": 47.647587774653516,
        "alt_km": 35800.89532352656,
        "timestamp": "2025-12-08T21:31:04.346674+00:00",
        "meta_object_name": "EUTELSAT 7C",
        "meta_object_id": "2019-034B",
        "meta_epoch": "2025-12-08T13:37:59.577024",
        "meta_mean_motion": 1.00270644,
        "meta_eccentricity": 0.00034933,
        "meta_inclination": 0.0737,
        "meta_ra_of_asc_node": 179.6012,
        "meta_arg_of_pericenter": 58.7605,
        "meta_mean_anomaly": 50.69,
        "meta_ephemeris_type": 0,
        "meta_classification_type": "U",
        "meta_norad_cat_id": 44334,
        "meta_element_set_no": 999,
        "meta_rev_at_epoch": 492,
        "meta_bstar": 0,
        "meta_mean_motion_dot": 5e-07,
        "meta_mean_motion_ddot": 0,
        "tle_line1": "1 44334U 19034B   25342.56805066  .00000050  00000+0  00000+0 0  9990",
        "tle_line2": "2 44334   0.0737 179.6012 0003493  58.7605  50.6900  1.00270644  4922"
      },
      "geometry": {
        "type": "Point",
        "coordinates": [
          47.647587774653516,
          -0.031016156290088186
        ]
      }
    },
    {
      "type": "Feature",
      "properties": {
        "norad_id": 44624,
        "name": "EUTELSAT 5 WEST B",
        "group": "eutelsat",
        "lat": 0.07146235416971994,
        "lon": 35.68734104840849,
        "alt_km": 35797.39921824957,
        "timestamp": "2025-12-08T21:31:04.346686+00:00",
        "meta_object_name": "EUTELSAT 5 WEST B",
        "meta_object_id": "2019-067A",
        "meta_epoch": "2025-12-08T08:26:36.898080",
        "meta_mean_motion": 1.00270867,
        "meta_eccentricity": 0.00035481,
        "meta_inclination": 0.0651,
        "meta_ra_of_asc_node": 339.6296,
        "meta_arg_of_pericenter": 278.5186,
        "meta_mean_anomaly": 300.8663,
        "meta_ephemeris_type": 0,
        "meta_classification_type": "U",
        "meta_norad_cat_id": 44624,
        "meta_element_set_no": 999,
        "meta_rev_at_epoch": 2252,
        "meta_bstar": 0,
        "meta_mean_motion_dot": -4e-07,
        "meta_mean_motion_ddot": 0,
        "tle_line1": "1 44624U 19067A   25342.35181595 -.00000040  00000+0  00000+0 0  9999",
        "tle_line2": "2 44624   0.0651 339.6296 0003548 278.5186 300.8663  1.00270867 22527"
      },
      "geometry": {
        "type": "Point",
        "coordinates": [
          35.68734104840849,
          0.07146235416971994
        ]
      }
    },
    {
      "type": "Feature",
      "properties": {
        "norad_id": 45027,
        "name": "EUTELSAT KONNECT",
        "group": "eutelsat",
        "lat": -0.030890803991475063,
        "lon": 47.8666660868073,
        "alt_km": 35791.87390429815,
        "timestamp": "2025-12-08T21:31:04.346698+00:00",
        "meta_object_name": "EUTELSAT KONNECT",
        "meta_object_id": "2020-005B",
        "meta_epoch": "2025-12-08T13:38:07.066176",
        "meta_mean_motion": 1.0027168,
        "meta_eccentricity": 0.00016551,
        "meta_inclination": 0.0713,
        "meta_ra_of_asc_node": 98.019,
        "meta_arg_of_pericenter": 164.3059,
        "meta_mean_anomaly": 26.9727,
        "meta_ephemeris_type": 0,
        "meta_classification_type": "U",
        "meta_norad_cat_id": 45027,
        "meta_element_set_no": 999,
        "meta_rev_at_epoch": 2242,
        "meta_bstar": 0,
        "meta_mean_motion_dot": 5.2e-07,
        "meta_mean_motion_ddot": 0,
        "tle_line1": "1 45027U 20005B   25342.56813734  .00000052  00000+0  00000+0 0  9993",
        "tle_line2": "2 45027   0.0713  98.0190 0001655 164.3059  26.9727  1.00271680 22421"
      },
      "geometry": {
        "type": "Point",
        "coordinates": [
          47.8666660868073,
          -0.030890803991475063
        ]
      }
    },
    {
      "type": "Feature",
      "properties": {
        "norad_id": 49056,
        "name": "EUTELSAT QUANTUM",
        "group": "eutelsat",
        "lat": 0.03425650178581131,
        "lon": 88.36201283386076,
        "alt_km": 35801.66888643369,
        "timestamp": "2025-12-08T21:31:04.346710+00:00",
        "meta_object_name": "EUTELSAT QUANTUM",
        "meta_object_id": "2021-069B",
        "meta_epoch": "2025-12-08T10:24:25.614720",
        "meta_mean_motion": 1.00271583,
        "meta_eccentricity": 0.00036828,
        "meta_inclination": 0.0323,
        "meta_ra_of_asc_node": 53.6769,
        "meta_arg_of_pericenter": 215.93,
        "meta_mean_anomaly": 11.6408,
        "meta_ephemeris_type": 0,
        "meta_classification_type": "U",
        "meta_norad_cat_id": 49056,
        "meta_element_set_no": 999,
        "meta_rev_at_epoch": 1601,
        "meta_bstar": 0,
        "meta_mean_motion_dot": 1.28e-06,
        "meta_mean_motion_ddot": 0,
        "tle_line1": "1 49056U 21069B   25342.43362980  .00000128  00000+0  00000+0 0  9992",
        "tle_line2": "2 49056   0.0323  53.6769 0003682 215.9300  11.6408  1.00271583 16014"
      },
      "geometry": {
        "type": "Point",
        "coordinates": [
          88.36201283386076,
          0.03425650178581131
        ]
      }
    },
    {
      "type": "Feature",
      "properties": {
        "norad_id": 53765,
        "name": "EUTELSAT KONNECT VHTS",
        "group": "eutelsat",
        "lat": -0.02958015854878496,
        "lon": 43.37540577844668,
        "alt_km": 35797.26622144949,
        "timestamp": "2025-12-08T21:31:04.346722+00:00",
        "meta_object_name": "EUTELSAT KONNECT VHTS",
        "meta_object_id": "2022-110A",
        "meta_epoch": "2025-12-08T13:36:59.673312",
        "meta_mean_motion": 1.00270451,
        "meta_eccentricity": 0.00026459,
        "meta_inclination": 0.0621,
        "meta_ra_of_asc_node": 103.7945,
        "meta_arg_of_pericenter": 134.1081,
        "meta_mean_anomaly": 46.6267,
        "meta_ephemeris_type": 0,
        "meta_classification_type": "U",
        "meta_norad_cat_id": 53765,
        "meta_element_set_no": 999,
        "meta_rev_at_epoch": 491,
        "meta_bstar": 0,
        "meta_mean_motion_dot": 1.9e-07,
        "meta_mean_motion_ddot": 0,
        "tle_line1": "1 53765U 22110A   25342.56735733  .00000019  00000+0  00000+0 0  9995",
        "tle_line2": "2 53765   0.0621 103.7945 0002645 134.1081  46.6267  1.00270451  4916"
      },
      "geometry": {
        "type": "Point",
        "coordinates": [
          43.37540577844668,
          -0.02958015854878496
        ]
      }
    },
    {
      "type": "Feature",
      "properties": {
        "norad_id": 54048,
        "name": "EUTELSAT HOTBIRD 13F",
        "group": "eutelsat",
        "lat": 0.05879189289320525,
        "lon": 53.695413743544464,
        "alt_km": 35781.93050854927,
        "timestamp": "2025-12-08T21:31:04.346733+00:00",
        "meta_object_name": "EUTELSAT HOTBIRD 13F",
        "meta_object_id": "2022-134A",
        "meta_epoch": "2025-12-08T13:39:59.386176",
        "meta_mean_motion": 1.00271257,
        "meta_eccentricity": 0.00020269,
        "meta_inclination": 0.0488,
        "meta_ra_of_asc_node": 292.1211,
        "meta_arg_of_pericenter": 61.5971,
        "meta_mean_anomaly": 301.8689,
        "meta_ephemeris_type": 0,
        "meta_classification_type": "U",
        "meta_norad_cat_id": 54048,
        "meta_element_set_no": 999,
        "meta_rev_at_epoch": 1146,
        "meta_bstar": 0,
        "meta_mean_motion_dot": 8.9e-07,
        "meta_mean_motion_ddot": 0,
        "tle_line1": "1 54048U 22134A   25342.56943734  .00000089  00000+0  00000+0 0  9995",
        "tle_line2": "2 54048   0.0488 292.1211 0002026  61.5971 301.8689  1.00271257 11462"
      },
      "geometry": {
        "type": "Point",
        "coordinates": [
          53.695413743544464,
          0.05879189289320525
        ]
      }
    },
    {
      "type": "Feature",
      "properties": {
        "norad_id": 54225,
        "name": "EUTELSAT HOTBIRD 13G",
        "group": "eutelsat",
        "lat": 0.022742887947794242,
        "lon": 53.63724751912754,
        "alt_km": 35791.88999601301,
        "timestamp": "2025-12-08T21:31:04.346745+00:00",
        "meta_object_name": "EUTELSAT HOTBIRD 13G",
        "meta_object_id": "2022-146A",
        "meta_epoch": "2025-12-08T13:39:59.386176",
        "meta_mean_motion": 1.00270387,
        "meta_eccentricity": 0.00019057,
        "meta_inclination": 0.0489,
        "meta_ra_of_asc_node": 235.9638,
        "meta_arg_of_pericenter": 310.4323,
        "meta_mean_anomaly": 109.1697,
        "meta_ephemeris_type": 0,
        "meta_classification_type": "U",
        "meta_norad_cat_id": 54225,
        "meta_element_set_no": 999,
        "meta_rev_at_epoch": 555,
        "meta_bstar": 0,
        "meta_mean_motion_dot": 8.9e-07,
        "meta_mean_motion_ddot": 0,
        "tle_line1": "1 54225U 22146A   25342.56943734  .00000089  00000+0  00000+0 0  9995",
        "tle_line2": "2 54225   0.0489 235.9638 0001905 310.4323 109.1697  1.00270387  5554"
      },
      "geometry": {
        "type": "Point",
        "coordinates": [
          53.63724751912754,
          0.022742887947794242
        ]
      }
    }
  ]
}